0 NTS 2
1 10091U 77053A   23281.87674044 -.00000012  00000-0  00000-0 0  9993
2 10091  63.7929 312.1542 0071062 224.4136 135.1214  2.00453069338982
0 OPS 5111 (NAVSTAR 1)
1 10684U 78020A   23278.92488153  .00000021  00000-0  00000-0 0  9991
2 10684  63.6432  82.0766 0080378 213.6948 145.8091  1.98072475316925
0 OPS 5112 (NAVSTAR 2)
1 10893U 78047A   23283.17303851  .00000003  00000-0  00000-0 0  9996
2 10893  63.3676 304.2780 0517082  44.7994 327.1070  2.01627044333957
0 OPS 5113 (NAVSTAR 3)
1 11054U 78093A   23283.48445042 -.00000044  00000-0  00000+0 0  9995
2 11054  63.6267 329.2057 0097610 229.8740 131.8402  1.93504711321697
0 OPS 5114 (NAVSTAR 4)
1 11141U 78112A   23282.70663626  .00000074  00000-0  00000-0 0  9991
2 11141  63.1024 100.4520 0134192  45.7483 318.0317  1.92895758210166
0 OPS 5117 (NAVSTAR 5)
1 11690U 80011A   23283.17022986  .00000034  00000-0  00000-0 0  9997
2 11690  64.0894  78.7368 0481609 203.6012 153.2845  2.00567072334042
0 OPS 5118 (NAVSTAR 6)
1 11783U 80032A   23283.17458100  .00000020  00000-0  00000-0 0  9999
2 11783  62.3674 281.7897 0535765  54.9077 119.6457  2.03456552321792
0 COSMOS 1413 (GLONASS)
1 13603U 82100A   23281.57950457  .00000063  00000-0  00000+0 0  9990
2 13603  64.3397 101.0240 0007083  23.8210 301.0165  2.13867380320176
0 COSMOS 1414 (GLONASS)
1 13606U 82100D   23282.58584291  .00000073  00000-0  00000+0 0  9995
2 13606  64.2897 105.0863 0076869  31.1814 337.5360  2.13103902319068
0 COSMOS 1415 (GLONASS)
1 13607U 82100E   23283.01577012  .00000072  00000-0  00000-0 0  9998
2 13607  64.3227 100.9317 0003891  27.4549 157.1064  2.13810371319964
0 OPS 9794 (NAVSTAR 8)
1 14189U 83072A   23282.08799448  .00000066  00000-0  00000-0 0  9991
2 14189  62.7909  97.1983 0203160  51.9877 124.7055  1.91719636207897
0 COSMOS 1490 (GLONASS)
1 14258U 83084A   23279.30069427  .00000039  00000-0  00000-0 0  9999
2 14258  64.3605 106.6984 0014577  13.5059 185.7328  2.13103324312455
0 COSMOS 1491 (GLONASS)
1 14259U 83084B   23283.32757561  .00000061  00000-0  00000-0 0  9995
2 14259  64.4331  92.6854 0018935 309.3927 231.7338  2.15434984315003
0 COSMOS 1492 (GLONASS)
1 14260U 83084C   23282.43495697  .00000074  00000-0  00000+0 0  9990
2 14260  64.3346 108.2379 0000840 346.9483  17.6800  2.12759394312101
0 COSMOS 1519 (GLONASS)
1 14590U 83127A   23283.21716167 -.00000086  00000-0  00000-0 0  9994
2 14590  66.6728   1.0467 0011125 186.6620 172.5059  2.13099148250231
0 COSMOS 1520 (GLONASS)
1 14591U 83127B   23283.61203368 -.00000084  00000-0  00000+0 0  9990
2 14591  66.6649   0.9271 0023577 176.1189 169.7339  2.13102125250300
0 COSMOS 1521 (GLONASS)
1 14592U 83127C   23282.37949953 -.00000087  00000-0  00000-0 0  9994
2 14592  66.6063 357.0838 0060275 194.7548 196.3150  2.13837296310608
0 COSMOS 1554 (GLONASS)
1 14977U 84047A   23282.40946164 -.00000090  00000-0  00000-0 0  9992
2 14977  66.6335   0.1397 0018060 220.0660 209.2879  2.13099974 82966
0 COSMOS 1555 (GLONASS)
1 14978U 84047B   23283.79576175 -.00000082  00000-0  00000+0 0  9997
2 14978  66.6422   0.5649 0012264 181.9473 226.5919  2.13101803278638
0 COSMOS 1556 (GLONASS)
1 14979U 84047C   23283.22827338 -.00000087  00000-0  00000-0 0  9992
2 14979  66.6593   1.6236 0009544 195.8957 163.6272  2.12912366306201
0 NAVSTAR 9 (USA 1)
1 15039U 84059A   23282.60110503  .00000062  00000-0  00000+0 0  9994
2 15039  62.9063  92.7261 0224644  49.0539 311.0132  1.92302974279247
0 COSMOS 1593 (GLONASS)
1 15259U 84095A   23281.65206547  .00000066  00000-0  00000-0 0  9991
2 15259  64.3688 106.6076 0024055 208.7089 146.2253  2.13105065257432
0 COSMOS 1594 (GLONASS)
1 15260U 84095B   23281.17151250  .00000061  00000-0  00000-0 0  9995
2 15260  64.3109 108.2686 0005819 190.2519 277.2203  2.12637291303596
0 COSMOS 1595 (GLONASS)
1 15261U 84095C   23281.13488382  .00000061  00000-0  00000-0 0  9991
2 15261  64.3028 105.1297 0047549 213.8206 341.2667  2.13102959278576
0 NAVSTAR 10 (USA 5)
1 15271U 84097A   23283.48840473 -.00000027  00000-0  00000-0 0  9990
2 15271  62.8955 320.3612 0143031 228.3953 135.6206  1.92618994277439
0 COSMOS 1650 (GLONASS)
1 15697U 85037A   23279.13799459  .00000037  00000-0  00000-0 0  9991
2 15697  64.4012 107.1388 0033578  28.6544 152.2685  2.13102448275301
0 COSMOS 1651 (GLONASS)
1 15698U 85037B   23281.08104786  .00000060  00000-0  00000-0 0  9998
2 15698  64.3888 106.6483 0014121  23.9892 157.6687  2.13123523298830
0 COSMOS 1652 (GLONASS)
1 15699U 85037C   23279.41070076  .00000040  00000-0  00000-0 0  9995
2 15699  64.3841 106.9805 0017459  24.6251 335.3515  2.13067677298679
0 NAVSTAR 11 (USA 10)
1 16129U 85093A   23283.34366590  .00000088  00000-0  00000-0 0  9994
2 16129  63.0711 111.7516 0309071  51.9517 127.5509  1.89369092210727
0 COSMOS 1710 (GLONASS)
1 16396U 85118A   23283.61115795 -.00000080  00000-0  00000-0 0  9990
2 16396  66.3677 356.5550 0012928 207.7285 161.5919  2.13103034294233
0 COSMOS 1711 (GLONASS)
1 16397U 85118B   23282.21919944 -.00000088  00000-0  00000-0 0  9992
2 16397  66.3817 356.7920 0009116 191.7235 165.8224  2.13101718293822
0 COSMOS 1712 (GLONASS)
1 16398U 85118C   23283.26602003 -.00000083  00000-0  00000-0 0  9999
2 16398  66.3700 357.3041 0010215  14.5487 349.3988  2.12920199293162
0 COSMOS 1778 (GLONASS)
1 16961U 86071A   23280.10597740  .00000049  00000-0  00000-0 0  9996
2 16961  64.3997 106.1655 0004637 209.4237 334.8783  2.13102468288409
0 COSMOS 1779 (GLONASS)
1 16962U 86071B   23281.46893815  .00000065  00000-0  00000-0 0  9997
2 16962  64.4040 106.1878 0011988  44.6814 154.3159  2.13103019288308
0 COSMOS 1780 (GLONASS)
1 16963U 86071C   23281.46704747  .00000064  00000-0  00000-0 0  9992
2 16963  64.3912 105.9113 0002134 337.1850 226.4827  2.13106950288386
0 COSMOS 1883 (GLONASS)
1 18355U 87079A   23283.62992686 -.00000074  00000-0  00000+0 0  9990
2 18355  65.9925 351.5403 0004944 262.6613  85.5060  2.13100934280735
0 COSMOS 1884 (GLONASS)
1 18356U 87079B   23283.55572194 -.00000075  00000-0  00000-0 0  9993
2 18356  66.0154 351.8625 0019774 214.1587 149.3665  2.13102605280771
0 COSMOS 1885 (GLONASS)
1 18357U 87079C   23282.12630144 -.00000083  00000-0  00000-0 0  9995
2 18357  66.0120 351.8443 0021622 212.8980 209.8506  2.13102480264218
0 COSMOS 1946 (GLONASS)
1 19163U 88043A   23282.58476792  .00000075  00000-0  00000-0 0  9990
2 19163  64.4855 107.2375 0004338 110.9931 249.4811  2.13103284274681
0 COSMOS 1947 (GLONASS)
1 19164U 88043B   23281.33496257  .00000064  00000-0  00000-0 0  9999
2 19164  64.4810 107.2044 0023968 219.7627 326.7550  2.13104091270352
0 COSMOS 1948 (GLONASS)
1 19165U 88043C   23283.33313257  .00000079  00000-0  00000-0 0  9996
2 19165  64.4705 106.9463 0002353 310.8264 232.0833  2.13103272275103
0 COSMOS 1970 (GLONASS)
1 19501U 88085A   23283.55548010 -.00000069  00000-0  00000-0 0  9997
2 19501  65.6950 347.6681 0008171  39.5951 331.9251  2.13102009272882
0 COSMOS 1971 (GLONASS)
1 19502U 88085B   23280.44762132 -.00000086  00000-0  00000-0 0  9995
2 19502  65.6900 347.6976 0021585  15.8528 338.6579  2.13101623258383
0 COSMOS 1972 (GLONASS)
1 19503U 88085C   23282.28970476 -.00000077  00000-0  00000-0 0  9992
2 19503  65.7223 348.0575 0004998 210.7830 210.6374  2.13102217272719
0 COSMOS 1987 (GLONASS)
1 19749U 89001A   23279.16236306  .00000038  00000-0  00000-0 0  9999
2 19749  64.4376 106.0945 0004763 223.0447 305.4444  2.13103503270303
0 COSMOS 1988 (GLONASS)
1 19750U 89001B   23279.29041802  .00000039  00000-0  00000-0 0  9991
2 19750  64.4536 106.4169 0015482 214.8337 341.4495  2.13101978270299
0 COSMOS 1989 (ETALON 1)
1 19751U 89001C   23282.72611248  .00000075  00000-0  00000-0 0  9991
2 19751  64.4506 105.8910 0023962 214.7857  96.0473  2.13156342270443
0 NAVSTAR 13 (USA 35)
1 19802U 89013A   23282.38262736  .00000047  00000-0  00000-0 0  9996
2 19802  54.4982 127.7695 0040160 226.1101 314.9480  1.85325066240073
0 COSMOS 2022 (GLONASS)
1 20024U 89039A   23283.19165826 -.00000066  00000-0  00000-0 0  9996
2 20024  65.4294 344.4229 0008886 216.2800 145.2173  2.13102158267435
0 COSMOS 2023 (GLONASS)
1 20025U 89039B   23283.42057582 -.00000065  00000-0  00000-0 0  9991
2 20025  65.4524 344.6870 0019260 200.6359 160.8761  2.13103908267362
0 COSMOS 2024 (ETALON 2)
1 20026U 89039C   23283.79848102 -.00000062  00000-0  00000+0 0  9994
2 20026  65.4329 344.0883 0019116 218.0602 185.8917  2.13204499267590
0 NAVSTAR 14 (USA 38)
1 20061U 89044A   23281.25398515  .00000002  00000-0  00000-0 0  9990
2 20061  53.9536 275.3927 0023927 192.1142 255.4961  1.88858915243228
0 NAVSTAR 15 (USA 42)
1 20185U 89064A   23283.52697910  .00000064  00000-0  00000-0 0  9990
2 20185  54.3799 122.9135 0010545 303.1878 257.3347  1.86087673237956
0 NAVSTAR 16 (USA 47)
1 20302U 89085A   23283.74915007 -.00000037  00000-0  00000+0 0  9998
2 20302  54.0693 218.3579 0009020  59.5235 129.1629  1.89426527239953
0 NAVSTAR 17 (USA 49)
1 20361U 89097A   23283.44377999 -.00000072  00000-0  00000-0 0  9995
2 20361  55.8200  45.0106 0021905 303.2335  54.0954  1.89174754230790
0 NAVSTAR 18 (USA 50)
1 20452U 90008A   23283.55872280  .00000007  00000-0  00000+0 0  9991
2 20452  54.7229 167.8987 0013035 268.3443 276.6109  1.89597979237650
0 NAVSTAR 19 (USA 54)
1 20533U 90025A   23283.34209948 -.00000009  00000-0  00000-0 0  9996
2 20533  54.1741 281.9643 0043208 210.3099 152.8600  1.91039805236280
0 COSMOS 2079 (GLONASS)
1 20619U 90045A   23283.49828734 -.00000061  00000-0  00000+0 0  9996
2 20619  65.2332 342.1836 0045451 209.2342 152.0265  2.13102965259904
0 COSMOS 2080 (GLONASS)
1 20620U 90045B   23281.35369325 -.00000074  00000-0  00000-0 0  9992
2 20620  65.2293 342.2069 0021972  33.6182  31.5639  2.13102775259662
0 COSMOS 2081 (GLONASS)
1 20621U 90045C   23283.63799589 -.00000060  00000-0  00000-0 0  9990
2 20621  65.2507 342.4003 0041572 218.9267 149.6967  2.13104765259791
0 NAVSTAR 20 (USA 63)
1 20724U 90068A   23281.45975140  .00000039  00000-0  00000-0 0  9991
2 20724  54.1838 108.8754 0036904 313.1613  47.5301  1.87186003231515
